$$SOE
2460154.500000000, A.D. 2023-Jul-29 00:00:00.0000, 2.564698912617842E+08, 4.132158076127794E+08, -1.718692046291977E+06,
2460161.500000000, A.D. 2023-Aug-05 00:00:00.0000, 2.485769043952536E+08, 4.181083266272666E+08, -3.106019125827402E+06,
2460168.500000000, A.D. 2023-Aug-12 00:00:00.0000, 2.405793123977097E+08, 4.228244520639228E+08, -4.492044445110857E+06,
2460175.500000000, A.D. 2023-Aug-19 00:00:00.0000, 2.324805222932588E+08, 4.273622675926911E+08, -5.876182611829877E+06,
2460182.500000000, A.D. 2023-Aug-26 00:00:00.0000, 2.242839668915090E+08, 4.317199066228669E+08, -7.257849233907700E+06,
2460189.500000000, A.D. 2023-Sep-02 00:00:00.0000, 2.159931047967928E+08, 4.358955521941617E+08, -8.636460903070569E+06,
2460196.500000000, A.D. 2023-Sep-09 00:00:00.0000, 2.076114204532438E+08, 4.398874367931037E+08, -1.001143518977758E+07,
2460203.500000000, A.D. 2023-Sep-16 00:00:00.0000, 1.991424243926950E+08, 4.436938420379599E+08, -1.138219066989020E+07,
2460210.500000000, A.D. 2023-Sep-23 00:00:00.0000, 1.905896541006546E+08, 4.473130985206120E+08, -1.274814699807185E+07,
2460217.500000000, A.D. 2023-Sep-30 00:00:00.0000, 1.819566751604578E+08, 4.507435869975141E+08, -1.410872489981157E+07,
2460224.500000000, A.D. 2023-Oct-07 00:00:00.0000, 1.732470803210113E+08, 4.539837403861061E+08, -1.546334591075686E+07,
2460231.500000000, A.D. 2023-Oct-14 00:00:00.0000, 1.644644875252874E+08, 4.570320432533975E+08, -1.681143222936746E+07,
2460238.500000000, A.D. 2023-Oct-21 00:00:00.0000, 1.556125401274005E+08, 4.598870304018157E+08, -1.815240684824774E+07,
2460245.500000000, A.D. 2023-Oct-28 00:00:00.0000, 1.466949078737885E+08, 4.625472868121166E+08, -1.948569364903414E+07,
2460252.500000000, A.D. 2023-Nov-04 00:00:00.0000, 1.377152873961335E+08, 4.650114481714441E+08, -2.081071740896127E+07,
2460259.500000000, A.D. 2023-Nov-11 00:00:00.0000, 1.286774023905106E+08, 4.672782013868067E+08, -2.212690378413823E+07,
2460266.500000000, A.D. 2023-Nov-18 00:00:00.0000, 1.195850036997441E+08, 4.693462850213518E+08, -2.343367929478091E+07,
2460273.500000000, A.D. 2023-Nov-25 00:00:00.0000, 1.104418693702739E+08, 4.712144896783125E+08, -2.473047131728688E+07,
2460280.500000000, A.D. 2023-Dec-02 00:00:00.0000, 1.012518047109847E+08, 4.728816583233615E+08, -2.601670808686462E+07,
2460287.500000000, A.D. 2023-Dec-09 00:00:00.0000, 9.201864243120308E+07, 4.743466864874638E+08, -2.729181872293100E+07,
2460294.500000000, A.D. 2023-Dec-16 00:00:00.0000, 8.274624314427234E+07, 4.756085223631344E+08, -2.855523330288920E+07,
2460301.500000000, A.D. 2023-Dec-23 00:00:00.0000, 7.343849658349845E+07, 4.766661674821085E+08, -2.980638296042687E+07,
2460308.500000000, A.D. 2023-Dec-30 00:00:00.0000, 6.409932218894365E+07, 4.775186790241950E+08, -3.104469980017588E+07,
2460315.500000000, A.D. 2024-Jan-06 00:00:00.0000, 5.473266729061726E+07, 4.781651713951023E+08, -3.226961665928316E+07,
2460322.500000000, A.D. 2024-Jan-13 00:00:00.0000, 4.534250605660669E+07, 4.786048152665244E+08, -3.348056715468717E+07,
2460329.500000000, A.D. 2024-Jan-20 00:00:00.0000, 3.593284042737719E+07, 4.788368371667538E+08, -3.467698587715217E+07,
2460336.500000000, A.D. 2024-Jan-27 00:00:00.0000, 2.650770100673541E+07, 4.788605202756221E+08, -3.585830849353293E+07,
2460343.500000000, A.D. 2024-Feb-03 00:00:00.0000, 1.707114747937169E+07, 4.786752054754467E+08, -3.702397179602149E+07,
2460350.500000000, A.D. 2024-Feb-10 00:00:00.0000, 7.627268830255962E+06, 4.782802923675067E+08, -3.817341374812010E+07,
2460357.500000000, A.D. 2024-Feb-17 00:00:00.0000, -1.819816497498358E+06, 4.776752402627344E+08, -3.930607353993282E+07,
2460364.500000000, A.D. 2024-Feb-24 00:00:00.0000, -1.126596047253559E+07, 4.768595691620660E+08, -4.042139165534845E+07,
2460371.500000000, A.D. 2024-Mar-02 00:00:00.0000, -2.070698534590447E+07, 4.758328606944630E+08, -4.151880995690116E+07,
2460378.500000000, A.D. 2024-Mar-09 00:00:00.0000, -3.013868338619784E+07, 4.745947589502203E+08, -4.259777180657288E+07,
2460385.500000000, A.D. 2024-Mar-16 00:00:00.0000, -3.955681608675924E+07, 4.731449714074528E+08, -4.365772224307474E+07,
2460392.500000000, A.D. 2024-Mar-23 00:00:00.0000, -4.895711295151092E+07, 4.714832710621867E+08, -4.469810811605671E+07,
2460399.500000000, A.D. 2024-Mar-30 00:00:00.0000, -5.833527210247775E+07, 4.696094997364783E+08, -4.571837797453780E+07,
2460406.500000000, A.D. 2024-Apr-06 00:00:00.0000, -6.768696245508488E+07, 4.675235691952701E+08, -4.671798200821024E+07,
2460413.500000000, A.D. 2024-Apr-13 00:00:00.0000, -7.700782391496642E+07, 4.652254609079714E+08, -4.769637229901055E+07,
2460420.500000000, A.D. 2024-Apr-20 00:00:00.0000, -8.629346655223761E+07, 4.627152271340980E+08, -4.865300307779929E+07,
2460427.500000000, A.D. 2024-Apr-27 00:00:00.0000, -9.553947027265121E+07, 4.599929927723981E+08, -4.958733089347631E+07,
2460434.500000000, A.D. 2024-May-04 00:00:00.0000, -1.047413849009960E+08, 4.570589572697953E+08, -5.049881476032424E+07,
2460441.500000000, A.D. 2024-May-11 00:00:00.0000, -1.138947304422560E+08, 4.539133964884963E+08, -5.138691631405832E+07,
2460448.500000000, A.D. 2024-May-18 00:00:00.0000, -1.229949974425665E+08, 4.505566645533545E+08, -5.225109998269473E+07,
2460455.500000000, A.D. 2024-May-25 00:00:00.0000, -1.320376474293762E+08, 4.469891956729245E+08, -5.309083317546752E+07,
2460462.500000000, A.D. 2024-Jun-01 00:00:00.0000, -1.410181133751812E+08, 4.432115058772984E+08, -5.390558650036535E+07,
2460469.500000000, A.D. 2024-Jun-08 00:00:00.0000, -1.499317999427406E+08, 4.392241946501649E+08, -5.469483403514999E+07,
2460476.500000000, A.D. 2024-Jun-15 00:00:00.0000, -1.587740831166404E+08, 4.350279470004951E+08, -5.545805364437641E+07,
2460483.500000000, A.D. 2024-Jun-22 00:00:00.0000, -1.675403102306876E+08, 4.306235371497135E+08, -5.619472715478854E+07,
2460490.500000000, A.D. 2024-Jun-29 00:00:00.0000, -1.762258025153753E+08, 4.260118320132960E+08, -5.690434034365299E+07,
2460497.500000000, A.D. 2024-Jul-06 00:00:00.0000, -1.848258575229436E+08, 4.211937920011814E+08, -5.758638318368024E+07,
2460504.500000000, A.D. 2024-Jul-13 00:00:00.0000, -1.933357494874899E+08, 4.161704719570037E+08, -5.824035029196413E+07,
2460511.500000000, A.D. 2024-Jul-20 00:00:00.0000, -2.017507296131506E+08, 4.109430233842891E+08, -5.886574130765417E+07,
2460518.500000000, A.D. 2024-Jul-27 00:00:00.0000, -2.100660269526299E+08, 4.055126969994133E+08, -5.946206121740405E+07,
2460525.500000000, A.D. 2024-Aug-03 00:00:00.0000, -2.182768496094936E+08, 3.998808452354655E+08, -6.002882068519895E+07,
2460532.500000000, A.D. 2024-Aug-10 00:00:00.0000, -2.263783861044649E+08, 3.940489246918718E+08, -6.056553640325958E+07,
2460539.500000000, A.D. 2024-Aug-17 00:00:00.0000, -2.343658068638745E+08, 3.880184985502841E+08, -6.107173146763219E+07,
2460546.500000000, A.D. 2024-Aug-24 00:00:00.0000, -2.422342658077599E+08, 3.817912389323066E+08, -6.154693578367712E+07,
2460553.500000000, A.D. 2024-Aug-31 00:00:00.0000, -2.499789019275056E+08, 3.753689291344758E+08, -6.199068651773551E+07,
2460560.500000000, A.D. 2024-Sep-07 00:00:00.0000, -2.575948404934222E+08, 3.687534658629843E+08, -6.240252861871198E+07,
2460567.500000000, A.D. 2024-Sep-14 00:00:00.0000, -2.650771938136606E+08, 3.619468624597386E+08, -6.278201533660108E+07,
2460574.500000000, A.D. 2024-Sep-21 00:00:00.0000, -2.724210635806808E+08, 3.549512535287357E+08, -6.312870851917017E+07,
2460581.500000000, A.D. 2024-Sep-28 00:00:00.0000, -2.796215452984337E+08, 3.477688977314364E+08, -6.344217890667140E+07,
2460588.500000000, A.D. 2024-Oct-05 00:00:00.0000, -2.866737311251178E+08, 3.404021787453943E+08, -6.372200676055954E+07,
2460595.500000000, A.D. 2024-Oct-12 00:00:00.0000, -2.935727115001544E+08, 3.328536073587283E+08, -6.396778254974213E+07,
2460602.500000000, A.D. 2024-Oct-19 00:00:00.0000, -3.003135773144457E+08, 3.251258244246778E+08, -6.417910755696173E+07,
2460609.500000000, A.D. 2024-Oct-26 00:00:00.0000, -3.068914226624539E+08, 3.172216038687548E+08, -6.435559446827617E+07,
2460616.500000000, A.D. 2024-Nov-02 00:00:00.0000, -3.133013479247431E+08, 3.091438555923832E+08, -6.449686798137169E+07,
2460623.500000000, A.D. 2024-Nov-09 00:00:00.0000, -3.195384630906294E+08, 3.008956282853453E+08, -6.460256543985873E+07,
2460630.500000000, A.D. 2024-Nov-16 00:00:00.0000, -3.255978913012717E+08, 2.924801121384287E+08, -6.467233749587024E+07,
2460637.500000000, A.D. 2024-Nov-23 00:00:00.0000, -3.314747725723126E+08, 2.839006413968826E+08, -6.470584880923155E+07,
2460644.500000000, A.D. 2024-Nov-30 00:00:00.0000, -3.371642674935268E+08, 2.751606967017450E+08, -6.470277880554353E+07,
2460651.500000000, A.D. 2024-Dec-07 00:00:00.0000, -3.426615604915151E+08, 2.662639076283869E+08, -6.466282249685718E+07,
2460658.500000000, A.D. 2024-Dec-14 00:00:00.0000, -3.479618633498856E+08, 2.572140566340539E+08, -6.458569120136482E+07,
2460665.500000000, A.D. 2024-Dec-21 00:00:00.0000, -3.530604213119893E+08, 2.480150831618599E+08, -6.447111305091984E+07,
2460672.500000000, A.D. 2024-Dec-28 00:00:00.0000, -3.579525197978241E+08, 2.386710849222184E+08, -6.431883370938176E+07,
2460679.500000000, A.D. 2025-Jan-04 00:00:00.0000, -3.626334891393277E+08, 2.291863187123259E+08, -6.412861734388763E+07,
2460686.500000000, A.D. 2025-Jan-11 00:00:00.0000, -3.670987091596037E+08, 2.195652024164501E+08, -6.390024754514079E+07,
2460693.500000000, A.D. 2025-Jan-18 00:00:00.0000, -3.713436145179044E+08, 2.098123172531680E+08, -6.363352818738437E+07,
2460700.500000000, A.D. 2025-Jan-25 00:00:00.0000, -3.753637005792921E+08, 1.999324097795085E+08, -6.332828428823502E+07,
2460707.500000000, A.D. 2025-Feb-01 00:00:00.0000, -3.791545296205274E+08, 1.899303936047931E+08, -6.298436288676179E+07,
2460714.500000000, A.D. 2025-Feb-08 00:00:00.0000, -3.827117373141252E+08, 1.798113508158993E+08, -6.260163394199017E+07,
2460721.500000000, A.D. 2025-Feb-15 00:00:00.0000, -3.860310394610894E+08, 1.695805330755665E+08, -6.217999125443200E+07,
$$EOE